EWS-G1 (GOES 13)        
1 29155U 06018A   22013.58281464  .00000048  00000-0  00000-0 0  9995
2 29155   0.3938 100.1567 0006090 149.6020 134.7277  1.00275558 27175
